{"type": "FeatureCollection", "features": [ {"type": "Feature", "properties": {"norad_id": 32289, "name": "YAOGAN-3", "group": "resource", "lat": 18.95288610718498, "lon": -170.20770091028598, "alt_km": 598.6872771942062, "timestamp": "2025-12-06T09:34:16.574494+00:00", "meta": {"OBJECT_NAME": "YAOGAN-3", "OBJECT_ID": "2007-055A", "EPOCH": "2025-12-05T23:10:50.108736", "MEAN_MOTION": 14.89808486, "ECCENTRICITY": 0.00015278, "INCLINATION": 97.8368, "RA_OF_ASC_NODE": 6.6523, "ARG_OF_PERICENTER": 77.9663, "MEAN_ANOMALY": 282.1725, "EPHEMERIS_TYPE": 0, "CLASSIFICATION_TYPE": "U", "NORAD_CAT_ID": 32289, "ELEMENT_SET_NO": 999, "REV_AT_EPOCH": 97708, "BSTAR": 0.00051203166, "MEAN_MOTION_DOT": 4.86e-05, "MEAN_MOTION_DDOT": 0}, "tle": {"line1": "1 32289U 07055A   25339.96585774  .00004860  00000+0  51203-3 0  9995", "line2": "2 32289  97.8368   6.6523 0001527  77.9663 282.1725 14.89808486977086"}}, "geometry": {"type": "Point", "coordinates": [-170.20770091028598, 18.95288610718498]}}, {"type": "Feature", "properties": {"norad_id": 32376, "name": "COSMO-SKYMED 2", "group": "resource", "lat": -72.89568826435426, "lon": -44.936013320416386, "alt_km": 630.897783840227, "timestamp": "2025-12-06T09:34:16.574506+00:00", "meta": {"OBJECT_NAME": "COSMO-SKYMED 2", "OBJECT_ID": "2007-059A", "EPOCH": "2025-12-05T22:42:13.955040", "MEAN_MOTION": 14.82152748, "ECCENTRICITY": 0.00015344, "INCLINATION": 97.8814, "RA_OF_ASC_NODE": 161.372, "ARG_OF_PERICENTER": 87.3811, "MEAN_ANOMALY": 272.7577, "EPHEMERIS_TYPE": 0, "CLASSIFICATION_TYPE": "U", "NORAD_CAT_ID": 32376, "ELEMENT_SET_NO": 999, "REV_AT_EPOCH": 97337, "BSTAR": 0.00014088668, "MEAN_MOTION_DOT": 1.069e-05, "MEAN_MOTION_DDOT": 0}, "tle": {"line1": "1 32376U 07059A   25339.94599485  .00001069  00000+0  14089-3 0  9997", "line2": "2 32376  97.8814 161.3720 0001534  87.3811 272.7577 14.82152748973379"}}, "geometry": {"type": "Point", "coordinates": [-44.936013320416386, -72.89568826435426]}}, {"type": "Feature", "properties": {"norad_id": 32382, "name": "RADARSAT-2", "group": "resource", "lat": -46.719925993652964, "lon": -5.693440947718149, "alt_km": 799.1052976365863, "timestamp": "2025-12-06T09:34:16.574516+00:00", "meta": {"OBJECT_NAME": "RADARSAT-2", "OBJECT_ID": "2007-061A", "EPOCH": "2025-12-05T23:43:00.561216", "MEAN_MOTION": 14.29984712, "ECCENTRICITY": 0.00010758, "INCLINATION": 98.5798, "RA_OF_ASC_NODE": 344.6765, "ARG_OF_PERICENTER": 91.3818, "MEAN_ANOMALY": 268.7488, "EPHEMERIS_TYPE": 0, "CLASSIFICATION_TYPE": "U", "NORAD_CAT_ID": 32382, "ELEMENT_SET_NO": 999, "REV_AT_EPOCH": 93834, "BSTAR": 7.8289908e-05, "MEAN_MOTION_DOT": 1.58e-06, "MEAN_MOTION_DDOT": 0}, "tle": {"line1": "1 32382U 07061A   25339.98820094  .00000158  00000+0  78290-4 0  9997", "line2": "2 32382  98.5798 344.6765 0001075  91.3818 268.7488 14.29984712938341"}}, "geometry": {"type": "Point", "coordinates": [-5.693440947718149, -46.719925993652964]}}, {"type": "Feature", "properties": {"norad_id": 32783, "name": "CARTOSAT-2A", "group": "resource", "lat": 70.15005252715476, "lon": -127.28315370263793, "alt_km": 625.0011712972346, "timestamp": "2025-12-06T09:34:16.574527+00:00", "meta": {"OBJECT_NAME": "CARTOSAT-2A", "OBJECT_ID": "2008-021A", "EPOCH": "2025-12-05T23:20:29.577120", "MEAN_MOTION": 14.7891739, "ECCENTRICITY": 0.00123184, "INCLINATION": 97.7939, "RA_OF_ASC_NODE": 30.0073, "ARG_OF_PERICENTER": 25.9019, "MEAN_ANOMALY": 334.2806, "EPHEMERIS_TYPE": 0, "CLASSIFICATION_TYPE": "U", "NORAD_CAT_ID": 32783, "ELEMENT_SET_NO": 999, "REV_AT_EPOCH": 95024, "BSTAR": 0.00022797039, "MEAN_MOTION_DOT": 1.632e-05, "MEAN_MOTION_DDOT": 0}, "tle": {"line1": "1 32783U 08021A   25339.97256455  .00001632  00000+0  22797-3 0  9990", "line2": "2 32783  97.7939  30.0073 0012318  25.9019 334.2806 14.78917390950248"}}, "geometry": {"type": "Point", "coordinates": [-127.28315370263793, 70.15005252715476]}}, {"type": "Feature", "properties": {"norad_id": 33320, "name": "HUANJING 1A (HJ-1A)", "group": "resource", "lat": -51.571732195629494, "lon": 139.20461935706263, "alt_km": 640.059128473009, "timestamp": "2025-12-06T09:34:16.574537+00:00", "meta": {"OBJECT_NAME": "HUANJING 1A (HJ-1A)", "OBJECT_ID": "2008-041A", "EPOCH": "2025-12-05T22:48:54.376704", "MEAN_MOTION": 14.83360733, "ECCENTRICITY": 0.00205374, "INCLINATION": 97.6532, "RA_OF_ASC_NODE": 328.5328, "ARG_OF_PERICENTER": 55.6627, "MEAN_ANOMALY": 304.6527, "EPHEMERIS_TYPE": 0, "CLASSIFICATION_TYPE": "U", "NORAD_CAT_ID": 33320, "ELEMENT_SET_NO": 999, "REV_AT_EPOCH": 92975, "BSTAR": 0.00035056487, "MEAN_MOTION_DOT": 2.833e-05, "MEAN_MOTION_DDOT": 0}, "tle": {"line1": "1 33320U 08041A   25339.95062936  .00002833  00000+0  35056-3 0  9993", "line2": "2 33320  97.6532 328.5328 0020537  55.6627 304.6527 14.83360733929751"}}, "geometry": {"type": "Point", "coordinates": [139.20461935706263, -51.571732195629494]}}, {"type": "Feature", "properties": {"norad_id": 33321, "name": "HUANJING 1B (HJ-1B)", "group": "resource", "lat": 71.98346290433763, "lon": 177.04822491133535, "alt_km": 587.26254213837, "timestamp": "2025-12-06T09:34:16.574548+00:00", "meta": {"OBJECT_NAME": "HUANJING 1B (HJ-1B)", "OBJECT_ID": "2008-041B", "EPOCH": "2025-12-05T23:22:42.251232", "MEAN_MOTION": 14.82793943, "ECCENTRICITY": 0.00382466, "INCLINATION": 97.6392, "RA_OF_ASC_NODE": 332.2699, "ARG_OF_PERICENTER": 97.2246, "MEAN_ANOMALY": 263.3318, "EPHEMERIS_TYPE": 0, "CLASSIFICATION_TYPE": "U", "NORAD_CAT_ID": 33321, "ELEMENT_SET_NO": 999, "REV_AT_EPOCH": 92977, "BSTAR": 0.00028713902, "MEAN_MOTION_DOT": 2.3e-05, "MEAN_MOTION_DDOT": 0}, "tle": {"line1": "1 33321U 08041B   25339.97410013  .00002300  00000+0  28714-3 0  9991", "line2": "2 33321  97.6392 332.2699 0038246  97.2246 263.3318 14.82793943929777"}}, "geometry": {"type": "Point", "coordinates": [177.04822491133535, 71.98346290433763]}}, {"type": "Feature", "properties": {"norad_id": 33331, "name": "GEOEYE 1", "group": "resource", "lat": 36.9192226881614, "lon": -122.07880431438072, "alt_km": 677.0345298241027, "timestamp": "2025-12-06T09:34:16.574559+00:00", "meta": {"OBJECT_NAME": "GEOEYE 1", "OBJECT_ID": "2008-042A", "EPOCH": "2025-12-05T23:05:09.225312", "MEAN_MOTION": 14.64798029, "ECCENTRICITY": 0.00028775, "INCLINATION": 98.126, "RA_OF_ASC_NODE": 51.3271, "ARG_OF_PERICENTER": 306.5803, "MEAN_ANOMALY": 53.5135, "EPHEMERIS_TYPE": 0, "CLASSIFICATION_TYPE": "U", "NORAD_CAT_ID": 33331, "ELEMENT_SET_NO": 999, "REV_AT_EPOCH": 92186, "BSTAR": 0.0002286155, "MEAN_MOTION_DOT": 1.172e-05, "MEAN_MOTION_DDOT": 0}, "tle": {"line1": "1 33331U 08042A   25339.96191233  .00001172  00000+0  22862-3 0  9996", "line2": "2 33331  98.1260  51.3271 0002877 306.5803  53.5135 14.64798029921867"}}, "geometry": {"type": "Point", "coordinates": [-122.07880431438072, 36.9192226881614]}}, {"type": "Feature", "properties": {"norad_id": 33396, "name": "THEOS", "group": "resource", "lat": -60.54556479039985, "lon": 54.19611717963724, "alt_km": 832.9045881305183, "timestamp": "2025-12-06T09:34:16.574569+00:00", "meta": {"OBJECT_NAME": "THEOS", "OBJECT_ID": "2008-049A", "EPOCH": "2025-12-05T22:01:28.511040", "MEAN_MOTION": 14.20094172, "ECCENTRICITY": 0.00011068, "INCLINATION": 98.5878, "RA_OF_ASC_NODE": 38.2083, "ARG_OF_PERICENTER": 99.9093, "MEAN_ANOMALY": 260.2209, "EPHEMERIS_TYPE": 0, "CLASSIFICATION_TYPE": "U", "NORAD_CAT_ID": 33396, "ELEMENT_SET_NO": 999, "REV_AT_EPOCH": 89053, "BSTAR": 9.3960769e-05, "MEAN_MOTION_DOT": 1.58e-06, "MEAN_MOTION_DDOT": 0}, "tle": {"line1": "1 33396U 08049A   25339.91769110  .00000158  00000+0  93961-4 0  9996", "line2": "2 33396  98.5878  38.2083 0001106  99.9093 260.2209 14.20094172890538"}}, "geometry": {"type": "Point", "coordinates": [54.19611717963724, -60.54556479039985]}}, {"type": "Feature", "properties": {"norad_id": 33412, "name": "COSMO-SKYMED 3", "group": "resource", "lat": -62.74280209675507, "lon": -4.840514256330368, "alt_km": 550.7023144540071, "timestamp": "2025-12-06T09:34:16.574580+00:00", "meta": {"OBJECT_NAME": "COSMO-SKYMED 3", "OBJECT_ID": "2008-054A", "EPOCH": "2025-12-05T21:19:26.685984", "MEAN_MOTION": 15.05253107, "ECCENTRICITY": 0.00156412, "INCLINATION": 97.8456, "RA_OF_ASC_NODE": 190.1651, "ARG_OF_PERICENTER": 197.0636, "MEAN_ANOMALY": 163.0066, "EPHEMERIS_TYPE": 0, "CLASSIFICATION_TYPE": "U", "NORAD_CAT_ID": 33412, "ELEMENT_SET_NO": 999, "REV_AT_EPOCH": 92784, "BSTAR": 0.00056467285, "MEAN_MOTION_DOT": 8.028e-05, "MEAN_MOTION_DDOT": 0}, "tle": {"line1": "1 33412U 08054A   25339.88850331  .00008028  00000+0  56467-3 0  9996", "line2": "2 33412  97.8456 190.1651 0015641 197.0636 163.0066 15.05253107927847"}}, "geometry": {"type": "Point", "coordinates": [-4.840514256330368, -62.74280209675507]}}, {"type": "Feature", "properties": {"norad_id": 33446, "name": "YAOGAN-4", "group": "resource", "lat": 20.73501678455092, "lon": -92.45940324463135, "alt_km": 612.9598756990663, "timestamp": "2025-12-06T09:34:16.574594+00:00", "meta": {"OBJECT_NAME": "YAOGAN-4", "OBJECT_ID": "2008-061A", "EPOCH": "2025-12-05T18:53:59.849664", "MEAN_MOTION": 14.82648614, "ECCENTRICITY": 0.00141806, "INCLINATION": 97.9174, "RA_OF_ASC_NODE": 269.9554, "ARG_OF_PERICENTER": 346.5672, "MEAN_ANOMALY": 13.5162, "EPHEMERIS_TYPE": 0, "CLASSIFICATION_TYPE": "U", "NORAD_CAT_ID": 33446, "ELEMENT_SET_NO": 999, "REV_AT_EPOCH": 91700, "BSTAR": 0.00037378722, "MEAN_MOTION_DOT": 2.964e-05, "MEAN_MOTION_DDOT": 0}, "tle": {"line1": "1 33446U 08061A   25339.78749826  .00002964  00000+0  37379-3 0  9990", "line2": "2 33446  97.9174 269.9554 0014180 346.5672  13.5162 14.82648614917005"}}, "geometry": {"type": "Point", "coordinates": [-92.45940324463135, 20.73501678455092]}}]}